[{"OBJECT_NAME":"THEA","OBJECT_ID":"2018-099AQ","EPOCH":"2026-03-09T22:33:02.658240","MEAN_MOTION":15.31454284,"ECCENTRICITY":0.00065849,"INCLINATION":97.4542,"RA_OF_ASC_NODE":137.8815,"ARG_OF_PERICENTER":275.4664,"MEAN_ANOMALY":84.5826,"EPHEMERIS_TYPE":0,"CLASSIFICATION_TYPE":"U","NORAD_CAT_ID":43796,"ELEMENT_SET_NO":999,"REV_AT_EPOCH":39748,"BSTAR":0.00074635274,"MEAN_MOTION_DOT":0.00022649,"MEAN_MOTION_DDOT":0},{"OBJECT_NAME":"STARLINK-31228","OBJECT_ID":"2024-017S","EPOCH":"2026-03-09T16:21:34.540992","MEAN_MOTION":15.30186757,"ECCENTRICITY":0.00011148,"INCLINATION":53.1605,"RA_OF_ASC_NODE":204.4502,"ARG_OF_PERICENTER":91.7379,"MEAN_ANOMALY":268.3749,"EPHEMERIS_TYPE":0,"CLASSIFICATION_TYPE":"U","NORAD_CAT_ID":58842,"ELEMENT_SET_NO":999,"REV_AT_EPOCH":12005,"BSTAR":1.6503119e-5,"MEAN_MOTION_DOT":1.3e-6,"MEAN_MOTION_DDOT":0}]
